KUIPER-00157            
1 65970U 25228Z   25330.51684510  .00042930  00000+0  12462-2 0  9993
2 65970  51.8782  98.8244 0006711 316.7475  43.2983 15.35060447  7925
